sat_0_10
1 00010U 00000A   18001.00000001 -.00002182  00000-0 -36183-4 0  0010
2 00010 096.0000 000.0000 0000623 005.0000 343.0000 15.731142000010
